[{"OBJECT_NAME":"STARLINK-35970","OBJECT_ID":"2025-271B","EPOCH":"2026-03-09T12:17:42.848736","MEAN_MOTION":15.30185753,"ECCENTRICITY":0.00013902,"INCLINATION":53.1598,"RA_OF_ASC_NODE":140.4594,"ARG_OF_PERICENTER":68.2586,"MEAN_ANOMALY":291.8563,"EPHEMERIS_TYPE":0,"CLASSIFICATION_TYPE":"U","NORAD_CAT_ID":66618,"ELEMENT_SET_NO":999,"REV_AT_EPOCH":1754,"BSTAR":0.00097886568,"MEAN_MOTION_DOT":0.00028731,"MEAN_MOTION_DDOT":0},{"OBJECT_NAME":"FENGYUN 1C DEB","OBJECT_ID":"1999-025AQG","EPOCH":"2026-03-09T10:43:06.043872","MEAN_MOTION":15.25746961,"ECCENTRICITY":0.00178142,"INCLINATION":98.9311,"RA_OF_ASC_NODE":250.2123,"ARG_OF_PERICENTER":328.3876,"MEAN_ANOMALY":31.6286,"EPHEMERIS_TYPE":0,"CLASSIFICATION_TYPE":"U","NORAD_CAT_ID":30674,"ELEMENT_SET_NO":999,"REV_AT_EPOCH":98658,"BSTAR":0.015201752,"MEAN_MOTION_DOT":0.00411052,"MEAN_MOTION_DDOT":0}]
